[ {"name": "STARLINK-32126", "line1": "1 60295U 24132T   26150.09271185 -.00001556  00000+0 -38425-4 0  9995", "line2": "2 60295  53.1627  34.3161 0000549  93.9138 266.1926 15.31683824104027"}, {"name": "STARLINK-32143", "line1": "1 60296U 24132U   26150.67063333 -.00002840  00000+0 -79769-4 0  9997", "line2": "2 60296  53.1621  31.5283 0000951  55.8714 304.2377 15.31711756104110"}, {"name": "STARLINK-32034", "line1": "1 60297U 24132V   26150.85204259  .00000098  00000+0  14938-4 0  9990", "line2": "2 60297  53.1619  30.5203 0001126 108.6143 251.4981 15.31691410104148"}, {"name": "STARLINK-32124", "line1": "1 60298U 24132W   26150.07871078  .00000072  00000+0  14088-4 0  9992", "line2": "2 60298  53.1616  34.2264 0001671 120.5399 239.5768 15.31697882104021"}, {"name": "STARLINK-32151", "line1": "1 60299U 24132X   26150.83439490  .00000949  00000+0  44183-4 0  9997", "line2": "2 60299  53.1608   2.4272 0001222 116.1731 243.9395 15.30186712104537"}, {"name": "STARLINK-32134", "line1": "1 60300U 24132Y   26150.09134683 -.00000177  00000+0  61544-5 0  9999", "line2": "2 60300  53.1612  34.3038 0001836  91.3829 268.7382 15.30190821104023"}, {"name": "STARLINK-11147 [DTC]", "line1": "1 60301U 24133A   26150.13865376 -.00008825  00000+0 -68012-4 0  9991", "line2": "2 60301  53.1591 104.9302 0000852  82.3687 277.7428 15.69727741106524"}, {"name": "STARLINK-11128 [DTC]", "line1": "1 60302U 24133B   26150.83409804  .00001190  00000+0  14676-4 0  9992", "line2": "2 60302  53.1590 101.4428 0001100  77.6574 282.4567 15.69710583106639"}, {"name": "STARLINK-11227 [DTC]", "line1": "1 60303U 24133C   26150.12883431 -.00010274  00000+0 -79951-4 0  9999", "line2": "2 60303  53.1582 104.8631 0000814  58.7675 301.3422 15.69740580106605"}, {"name": "STARLINK-11224 [DTC]", "line1": "1 60304U 24133D   26150.88795896 -.00001570  00000+0 -81005-5 0  9993", "line2": "2 60304  53.1605 101.0642 0001142  88.0617 272.0531 15.69724062106725"}, {"name": "STARLINK-11115 [DTC]", "line1": "1 60305U 24133E   26150.88305350  .00000950  00000+0  12694-4 0  9992", "line2": "2 60305  53.1586 101.0295 0000840  93.0262 267.0852 15.69711032106648"}, {"name": "STARLINK-11109 [DTC]", "line1": "1 60306U 24133F   26150.17778780 -.00000802  00000+0 -17650-5 0  9992", "line2": "2 60306  53.1594 104.4508 0001370  53.8583 306.2562 15.69686725106533"}, {"name": "STARLINK-11223 [DTC]", "line1": "1 60307U 24133G   26150.86834171  .00062520  00000+0  51627-3 0  9999", "line2": "2 60307  53.1579 100.9324 0000883  52.6430 307.4669 15.69744850106647"}, {"name": "STARLINK-11192 [DTC]", "line1": "1 60308U 24133H   26150.10922731 -.00000865  00000+0 -22790-5 0  9994", "line2": "2 60308  53.1595 104.7300 0001329  52.3986 307.7152 15.69687587106521"}, {"name": "STARLINK-11213 [DTC]", "line1": "1 60309U 24133J   26150.16308388  .00000980  00000+0  12959-4 0  9998", "line2": "2 60309  53.1606 104.3499 0001203  96.8217 263.2938 15.69686879106533"}, {"name": "STARLINK-11200 [DTC]", "line1": "1 60310U 24133K   26150.15817529 -.00000064  00000+0  43275-5 0  9991", "line2": "2 60310  53.1591 104.3167 0001053  92.5487 267.5651 15.69693531106537"}, {"name": "STARLINK-11206 [DTC]", "line1": "1 60312U 24133M   26150.84883869 -.00000302  00000+0  23645-5 0  9993", "line2": "2 60312  53.1596 101.5311 0001157  75.3659 284.7487 15.69690092106637"}, {"name": "STARLINK-11205 [DTC]", "line1": "1 60313U 24133N   26150.84391705  .00002573  00000+0  26082-4 0  9995", "line2": "2 60313  53.1574 101.4964 0001193 104.8489 255.2661 15.69713988106633"}, {"name": "STARLINK-32191", "line1": "1 60314U 24133P   26150.60249751  .00000279  00000+0  21555-4 0  9994", "line2": "2 60314  53.1615 276.4343 0001349  88.8809 271.2346 15.30190126104181"}, {"name": "STARLINK-32194", "line1": "1 60315U 24133Q   26150.74789422  .00001313  00000+0  56467-4 0  9994", "line2": "2 60315  53.1603 275.9219 0001310 100.1768 259.9380 15.30199735104204"}, {"name": "STARLINK-32192", "line1": "1 60316U 24133R   26150.77627397  .00000944  00000+0  43984-4 0  9999", "line2": "2 60316  53.1606 275.3882 0001228 100.6142 259.4997 15.30201115104303"}, {"name": "STARLINK-32189", "line1": "1 60317U 24133S   26150.74578253  .00000141  00000+0  16891-4 0  9999", "line2": "2 60317  53.1614 275.9083 0001416  94.3338 265.7825 15.30202165104291"}, {"name": "STARLINK-32190", "line1": "1 60318U 24133T   26150.60569168 -.00003642  00000+0 -11101-3 0  9999", "line2": "2 60318  53.1607 276.4533 0001262  98.2916 261.8228 15.30168726104180"}, {"name": "STARLINK-32182", "line1": "1 60319U 24133U   26150.74684087  .00003544  00000+0  13178-3 0  9998", "line2": "2 60319  53.1616 275.9162 0001016  93.7431 266.3686 15.30188166104203"}, {"name": "STARLINK-32199", "line1": "1 60320U 24133V   26150.54351870 -.00000561  00000+0 -68249-5 0  9998", "line2": "2 60320  53.1613 276.7772 0001161  79.6662 280.4469 15.30187456104171"}, {"name": "STARLINK-32198", "line1": "1 60321U 24133W   26150.55301277 -.00000326  00000+0  11213-5 0  9993", "line2": "2 60321  53.1609 276.8368 0001080  88.8216 271.2909 15.30191564104268"}, {"name": "STARLINK-31745", "line1": "1 60329U 24136A   26150.12580344  .00000215  00000+0  18702-4 0  9996", "line2": "2 60329  53.1595  57.3465 0002040 103.0418 257.0811 15.31695852103343"}, {"name": "STARLINK-32153", "line1": "1 60330U 24136B   26150.02873596  .00001903  00000+0  76386-4 0  9998", "line2": "2 60330  53.1602  58.1626 0001489  83.4636 276.6535 15.30194371102114"}, {"name": "STARLINK-32203", "line1": "1 60331U 24136C   26150.83335647  .01504965  00000+0  42546-1 0  9993", "line2": "2 60331  53.1603  44.0654 0001020  59.4706 266.1250 15.33017487  5893"}, {"name": "STARLINK-32171", "line1": "1 60332U 24136D   26150.82822713  .00000663  00000+0  34499-4 0  9994", "line2": "2 60332  53.1645  53.9159 0000682  73.4274 286.6802 15.30191253102246"}, {"name": "STARLINK-32133", "line1": "1 60333U 24136E   26150.74086384  .00001265  00000+0  54821-4 0  9992", "line2": "2 60333  53.1624  54.7833 0001173  91.4299 268.6836 15.30195837102222"}, {"name": "STARLINK-32132", "line1": "1 60334U 24136F   26150.14670708 -.00000895  00000+0 -18083-4 0  9996", "line2": "2 60334  53.1610  57.4743 0001837  78.9290 281.1917 15.30186326102139"}, {"name": "STARLINK-32168", "line1": "1 60335U 24136G   26150.73136595 -.00000114  00000+0  82728-5 0  9994", "line2": "2 60335  53.1604  54.7229 0001229  93.7448 266.3693 15.30193005102225"}, {"name": "STARLINK-32079", "line1": "1 60336U 24136H   26150.72820677 -.00001581  00000+0 -41295-4 0  9998", "line2": "2 60336  53.1616  54.7033 0001281  80.9893 279.1253 15.30186913102226"}, {"name": "STARLINK-32078", "line1": "1 60338U 24136K   26150.72398693 -.00000777  00000+0 -14133-4 0  9995", "line2": "2 60338  53.1612  54.6794 0001326  84.3173 275.7978 15.30184705102229"}, {"name": "STARLINK-32175", "line1": "1 60339U 24136L   26150.72187741  .00000468  00000+0  27933-4 0  9993", "line2": "2 60339  53.1623  54.6654 0000924  79.8010 280.3095 15.30179591102228"}, {"name": "STARLINK-32176", "line1": "1 60340U 24136M   26150.71870309 -.00002717  00000+0 -79685-4 0  9995", "line2": "2 60340  53.1610  54.6422 0001501  96.0475 264.0697 15.30184526103397"}, {"name": "STARLINK-32185", "line1": "1 60341U 24136N   26150.71132402 -.00001518  00000+0 -39120-4 0  9999", "line2": "2 60341  53.1610  54.5938 0001962  89.2506 270.8719 15.30186711102228"}, {"name": "STARLINK-32221", "line1": "1 60342U 24136P   26150.71447565  .00000210  00000+0  19226-4 0  9990", "line2": "2 60342  53.1610  54.6158 0001203  78.6918 281.4218 15.30196914102229"}, {"name": "STARLINK-32083", "line1": "1 60343U 24136Q   26150.71553715 -.00002605  00000+0 -75883-4 0  9999", "line2": "2 60343  53.1620  54.5850 0001610 111.2276 248.8897 15.30189252102229"}, {"name": "STARLINK-32077", "line1": "1 60344U 24136R   26150.12031777  .00001886  00000+0  75827-4 0  9990", "line2": "2 60344  53.1633  57.3058 0001207  77.2481 282.8655 15.30181534102131"}, {"name": "STARLINK-32075", "line1": "1 60345U 24136S   26150.18141873 -.00001961  00000+0 -54140-4 0  9997", "line2": "2 60345  53.1608  56.9755 0001040  88.5667 271.5453 15.30177880102140"}, {"name": "STARLINK-32082", "line1": "1 60346U 24136T   26150.11715696 -.00000211  00000+0  50202-5 0  9993", "line2": "2 60346  53.1608  57.2860 0001361  91.5744 268.5412 15.30188488102134"}, {"name": "STARLINK-32084", "line1": "1 60347U 24136U   26150.83335647 -.00008261  00000+0 -25466-3 0  9993", "line2": "2 60347  53.1590  53.8934 0001234  95.1246 285.9809 15.31706572  5906"}, {"name": "STARLINK-32081", "line1": "1 60348U 24136V   26150.75029199  .00002358  00000+0  87727-4 0  9995", "line2": "2 60348  53.1617  54.1249 0001123  91.5674 268.5456 15.31699421102235"}, {"name": "STARLINK-32181", "line1": "1 60349U 24136W   26150.72392426  .00000364  00000+0  21906-4 0  9991", "line2": "2 60349  53.1616  53.2582 0001077  73.7764 286.3357 15.34377544102246"}, {"name": "STARLINK-32076", "line1": "1 60350U 24136X   26150.74563125  .00016325  00000+0  53611-3 0  9992", "line2": "2 60350  53.1617  54.0957 0001385  95.2062 264.9097 15.31733739102237"}, {"name": "STARLINK-32097", "line1": "1 60351U 24136Y   26150.72181351 -.00000607  00000+0 -68412-5 0  9993", "line2": "2 60351  53.1611  53.2409 0001150  99.4163 260.6969 15.34379398102245"}, {"name": "STARLINK-32285", "line1": "1 60355U 24138A   26150.79891250  .00000688  00000+0  35332-4 0  9993", "line2": "2 60355  53.1613 287.8786 0001363 109.8644 250.2504 15.30213278103207"}, {"name": "STARLINK-32278", "line1": "1 60356U 24138B   26150.59992391  .00003164  00000+0  11892-3 0  9996", "line2": "2 60356  53.1620 289.4761 0001056  90.0699 270.0423 15.30195414103163"}, {"name": "STARLINK-32287", "line1": "1 60358U 24138D   26150.79270988  .00002417  00000+0  93696-4 0  9994", "line2": "2 60358  53.1612 288.5520 0001114  91.1232 268.9896 15.30202659103192"}]